[{"OBJECT_NAME":"STARLINK-5227","OBJECT_ID":"2022-141AA","EPOCH":"2026-03-09T23:22:03.275328","MEAN_MOTION":15.08822733,"ECCENTRICITY":0.00013917,"INCLINATION":53.2188,"RA_OF_ASC_NODE":2.6237,"ARG_OF_PERICENTER":50.0725,"MEAN_ANOMALY":310.0389,"EPHEMERIS_TYPE":0,"CLASSIFICATION_TYPE":"U","NORAD_CAT_ID":54181,"ELEMENT_SET_NO":999,"REV_AT_EPOCH":18590,"BSTAR":-0.00013242959,"MEAN_MOTION_DOT":-2.394e-5,"MEAN_MOTION_DDOT":0},{"OBJECT_NAME":"SEDNA-2","OBJECT_ID":"2025-009DQ","EPOCH":"2026-03-09T19:10:28.282944","MEAN_MOTION":15.10492622,"ECCENTRICITY":0.0010309,"INCLINATION":97.4615,"RA_OF_ASC_NODE":144.8075,"ARG_OF_PERICENTER":53.026,"MEAN_ANOMALY":307.1912,"EPHEMERIS_TYPE":0,"CLASSIFICATION_TYPE":"U","NORAD_CAT_ID":63153,"ELEMENT_SET_NO":999,"REV_AT_EPOCH":6311,"BSTAR":0.00049393403,"MEAN_MOTION_DOT":8.085e-5,"MEAN_MOTION_DDOT":0}]
